BEIDOU 3 (C01)          
1 36287U 10001A   21014.83757642 -.00000289  00000-0  00000-0 0  9998
2 36287   1.6562  39.5060 0003428 110.0782  46.8301  1.00269179 40323
BEIDOU 5 (C06)          
1 36828U 10036A   21015.51940436 -.00000085  00000-0  00000+0 0  9991
2 36828  54.1704 181.0056 0101219 233.2314   4.4504  1.00249583 38373
BEIDOU 6 (C04)          
1 37210U 10057A   21014.84150204 -.00000119  00000-0  00000-0 0  9990
2 37210   0.8763  49.8519 0005857 191.1926 336.4346  1.00271796 37438
BEIDOU 7 (C07)          
1 37256U 10068A   21015.43467020 -.00000210  00000-0  00000+0 0  9996
2 37256  51.1245 295.8307 0082460 217.2879 233.2248  1.00306600 36956
BEIDOU 8 (C08)          
1 37384U 11013A   21015.07463748 -.00000190  00000-0  00000+0 0  9999
2 37384  59.5694  59.4500 0055720 205.4822 353.6932  1.00296870 35822
BEIDOU 9 (C09)          
1 37763U 11038A   21014.93035743 -.00000030  00000-0  00000-0 0  9995
2 37763  54.4513 183.4255 0073136 223.0550 134.4258  1.00251394 34790
BEIDOU 10 (C10)         
1 37948U 11073A   21014.92611569 -.00000149  00000-0  00000+0 0  9994
2 37948  51.2296 295.4348 0070368 216.6559  30.7048  1.00287500 33552
BEIDOU 11 (C05)         
1 38091U 12008A   21014.90372008  .00000048  00000-0  00000-0 0  9991
2 38091   1.9283  71.0988 0003893 239.0149 188.5080  1.00273807 32632
BEIDOU 12 (C11)         
1 38250U 12018A   21014.58411348 -.00000097  00000-0  00000-0 0  9999
2 38250  56.7549  10.6934 0024634 248.6629 202.7745  1.86234303 59422
BEIDOU 13 (C12)         
1 38251U 12018B   21014.66667338 -.00000097  00000-0  00000-0 0  9991
2 38251  56.6791  10.0493 0015993 252.6913 298.5421  1.86233644 59425
BEIDOU 15 (C14)         
1 38775U 12050B   21014.64093531 -.00000020  00000-0  00000-0 0  9990
2 38775  55.1417 129.1714 0012634 321.4949  49.8487  1.86232305 56807
BEIDOU 16 (C02)         
1 38953U 12059A   21014.93225995 -.00000183  00000-0  00000-0 0  9990
2 38953   1.6037  84.8509 0009053 260.7396 188.5906  1.00272860 30209
BEIDOU 17 (C31)         
1 40549U 15019A   21014.92671758 -.00000172  00000-0  00000+0 0  9991
2 40549  52.7387 318.7643 0037012 189.8001  31.7055  1.00298741 21239
BEIDOU 18 (C57)         
1 40748U 15037A   21014.79440304 -.00000099  00000-0  00000+0 0  9996
2 40748  55.9441   9.2243 0004376 322.4753 224.4868  1.86233471 37255
BEIDOU 19 (C58)         
1 40749U 15037B   21015.19329655 -.00000099  00000-0  00000+0 0  9997
2 40749  55.9473   9.1989 0007169 298.1180 293.0445  1.86232188 37250
BEIDOU 20 (C18)         
1 40938U 15053A   21014.71177741 -.00000123  00000-0  00000-0 0  9998
2 40938  52.2995 281.8233 0046075 191.1275 354.1721  1.00271147 19515
BEIDOU IGSO-6 (C13)     
1 41434U 16021A   21015.06529027 -.00000138  00000-0  00000+0 0  9998
2 41434  57.3383  58.2644 0043060 210.5271 322.0606  1.00258891 17637
BEIDOU-2 G7 (C03)       
1 41586U 16037A   21015.47762743 -.00000362  00000-0  00000+0 0  9991
2 41586   1.9337  69.3131 0008776 359.7833 328.5162  1.00272333 16946
BEIDOU-3 M1 (C19)       
1 43001U 17069A   21014.84398091 -.00000018  00000-0  00000-0 0  9991
2 43001  55.2966 129.0954 0007961 284.2922  19.6112  1.86231623 21730
BEIDOU-3 M2 (C20)       
1 43002U 17069B   21015.49137203 -.00000012  00000-0  00000+0 0  9993
2 43002  55.2962 129.1085 0006712 312.9287 108.6635  1.86231425 21749
BEIDOU-3 M3 (C27)       
1 43107U 18003A   21015.17301618 -.00000100  00000-0  00000+0 0  9994
2 43107  55.3833  10.3601 0003641  24.9906 349.0329  1.86232549 20506
BEIDOU-3 M4 (C28)       
1 43108U 18003B   21015.09746044 -.00000100  00000-0  00000+0 0  9992
2 43108  55.3769  10.3538 0004519 252.5660 115.9853  1.86232596 20509
BEIDOU-3 M5 (C21)       
1 43207U 18018A   21014.45818041 -.00000021  00000-0  00000+0 0  9996
2 43207  55.2551 129.2393 0004760 336.1723  23.7786  1.86231479 19871
BEIDOU-3 M6 (C22)       
1 43208U 18018B   21014.52492489 -.00000020  00000-0  00000-0 0  9999
2 43208  55.2545 129.2420 0006756 295.8975  64.0063  1.86231616 19872
BEIDOU-3 M7 (C29)       
1 43245U 18029A   21014.52946729 -.00000100  00000-0  00000+0 0  9991
2 43245  55.3215   8.1818 0001668 281.5492 291.1276  1.86232720 19020
BEIDOU-3 M8 (C30)       
1 43246U 18029B   21014.46102552 -.00000100  00000-0  10000-3 0  9998
2 43246  55.3192   8.2166 0004889 329.0720 243.7824  1.86232917 19011
BEIDOU IGSO-7 (C16)     
1 43539U 18057A   21014.86368623 -.00000107  00000-0  00000-0 0  9994
2 43539  55.0513 180.3360 0030988 211.9633 147.3095  1.00260339  9304
BEIDOU-3 M9 (C23)       
1 43581U 18062A   21015.18075824  .00000024  00000-0  00000+0 0  9997
2 43581  54.4657 249.8607 0003279 307.7319 237.3926  1.86231828 16773
BEIDOU-3 M10 (C24)      
1 43582U 18062B   21014.76931701  .00000029  00000-0  00000-0 0  9992
2 43582  54.4664 249.8646 0006512   3.1355 357.3453  1.86232344 16777
BEIDOU-3 M11 (C25)      
1 43602U 18067A   21014.71313420  .00000031  00000-0  00000-0 0  9990
2 43602  54.5396 248.4376 0007561   0.6319   4.6620  1.86231565 16261
BEIDOU-3 M12 (C26)      
1 43603U 18067B   21014.61036925  .00000032  00000-0  00000-0 0  9993
2 43603  54.5364 248.4079 0004903 354.8223 212.0595  1.86231291 16275
BEIDOU-3 M13 (C32)      
1 43622U 18072A   21015.34184400 -.00000014  00000-0  00000+0 0  9993
2 43622  55.2199 128.7832 0004867 278.4491  89.2264  1.86231510 15803
BEIDOU-3 M14 (C33)      
1 43623U 18072B   21014.60798036 -.00000020  00000-0  00000+0 0  9995
2 43623  55.2215 128.8032 0003436 316.6729   9.2119  1.86231421 15785
BEIDOU-3 M15 (C34)      
1 43647U 18078A   21015.50113903 -.00000101  00000-0  10000-3 0  9996
2 43647  55.2145   8.3510 0007122 338.9036 120.9678  1.86232518 15318
BEIDOU-3 M16 (C35)      
1 43648U 18078B   21014.66786591 -.00000101  00000-0  10000-3 0  9992
2 43648  55.2105   8.3877 0004900 343.1899 186.7317  1.86232018 15312
BEIDOU-3 G1 (C59)       
1 43683U 18085A   21015.55526753 -.00000284  00000-0  00000+0 0  9997
2 43683   1.3256 242.4318 0003324  19.3305 193.3168  1.00272423  8224
BEIDOU-3 M17 (C36)      
1 43706U 18093A   21015.36925421  .00000022  00000-0  00000+0 0  9995
2 43706  54.5458 249.7015 0008656 279.9139 256.5514  1.86231872 14670
BEIDOU-3 M18 (C37)      
1 43707U 18093B   21014.84950986  .00000028  00000-0  00000-0 0  9999
2 43707  54.5474 249.7111 0008200 307.0988 331.6112  1.86232138 14660
BEIDOU-3 IGSO-1 (C38)   
1 44204U 19023A   21015.38434544 -.00000212  00000-0  00000+0 0  9998
2 44204  55.7980  58.5874 0017850 200.8969 107.7630  1.00285597  6515
BEIDOU-2 G8             
1 44231U 19027A   21014.83836154 -.00000253  00000-0  00000-0 0  9990
2 44231   0.5174 309.6947 0007816 270.5376 340.5321  1.00276139  6231
BEIDOU-3 IGSO-2 (C39)   
1 44337U 19035A   21014.87020291 -.00000102  00000-0  00000-0 0  9990
2 44337  55.0916 176.3832 0016497 183.9793 175.0282  1.00277331  5842
BEIDOU-3 M23 (C45)      
1 44542U 19061A   21015.45703181  .00000022  00000-0  10000-3 0  9992
2 44542  54.7702 249.7387 0009079 339.1624 300.4076  1.86231368  8937
BEIDOU-3 M24 (C46)      
1 44543U 19061B   21015.44102388  .00000022  00000-0  10000-3 0  9994
2 44543  54.7686 249.7101 0006076 336.2393 203.2457  1.86231727  8941
BEIDOU-3 IGSO-3         
1 44709U 19073A   21014.72427745 -.00000178  00000-0  00000+0 0  9996
2 44709  58.0818 301.7426 0019503 195.8313 345.5196  1.00270055  4600
BEIDOU-3 M21            
1 44793U 19078A   21014.60276983 -.00000101  00000-0  10000-3 0  9998
2 44793  55.0615   8.4658 0006999 345.3013 186.8960  1.86232173  7787
BEIDOU-3 M22            
1 44794U 19078B   21015.10173398 -.00000101  00000-0  10000-3 0  9991
2 44794  55.0381   8.4523 0005028 337.3085  80.1047  1.86232668  7793
BEIDOU-3 M19            
1 44864U 19090A   21014.70813189 -.00000019  00000-0  00000-0 0  9991
2 44864  55.1538 129.0448 0014593 260.3319  87.8273  1.86231758  7361
BEIDOU-3 M20            
1 44865U 19090B   21015.17696534 -.00000015  00000-0  00000+0 0  9992
2 44865  55.1566 129.0599 0013157 276.9902 115.4282  1.86231739  7363
BEIDOU-3 G2             
1 45344U 20017A   21014.89733313 -.00000145  00000-0  00000-0 0  9996
2 45344   2.6387 332.6748 0000842   6.3065 178.6415  1.00272398  3417
BEIDOU-3 G3             
1 45807U 20040A   21014.90343964 -.00000358  00000-0  00000-0 0  9993
2 45807   2.6372 298.4088 0010209  13.8386 238.0943  1.00269911  2231
